{
  "type": "FeatureCollection",
  "name": "SITE2-like similar plots",
  "rule": "Business1 AND [(width AND aspect ratio) OR selected GFA] AND non-road context AND bordering roads",
  "filter_counts": [
    {
      "filter": 1,
      "name": "Business1",
      "input": 1510,
      "passed": 1510
    },
    {
      "filter": 2,
      "name": "(Width AND aspect ratio) OR final allowable GFA",
      "input": 1510,
      "passed": 63
    },
    {
      "filter": 3,
      "name": "Non-road context",
      "input": 63,
      "passed": 3
    },
    {
      "filter": 4,
      "name": "Bordering road similarity",
      "input": 3,
      "passed": 1
    }
  ],
  "features": [
    {
      "type": "Feature",
      "id": "UUID_7e4617a7-5812-4a68-b11a-c135a65fce4a",
      "geometry": {
        "type": "Polygon",
        "coordinates": [
          [
            [
              103.848027983916,
              1.3365035909214
            ],
            [
              103.848028176983,
              1.33723868552003
            ],
            [
              103.848028083706,
              1.33787189712492
            ],
            [
              103.84802808371,
              1.33787270833986
            ],
            [
              103.848191654343,
              1.33782726303264
            ],
            [
              103.848369326949,
              1.33778217937336
            ],
            [
              103.848547708535,
              1.33774091211496
            ],
            [
              103.848708379575,
              1.33770746770816
            ],
            [
              103.84883740343,
              1.33768191859427
            ],
            [
              103.849572836657,
              1.33753625686252
            ],
            [
              103.849573965236,
              1.33753473752266
            ],
            [
              103.849574500772,
              1.33753401854933
            ],
            [
              103.849658154022,
              1.33742146530789
            ],
            [
              103.849658015634,
              1.33741991432372
            ],
            [
              103.84965473026,
              1.33738289508954
            ],
            [
              103.849662896858,
              1.33718659277347
            ],
            [
              103.849696717312,
              1.33699321228682
            ],
            [
              103.849755481776,
              1.336805836612
            ],
            [
              103.849838282725,
              1.33662810129869
            ],
            [
              103.849917229206,
              1.33650369638315
            ],
            [
              103.848029167317,
              1.33650359091428
            ],
            [
              103.848027983916,
              1.3365035909214
            ]
          ]
        ]
      },
      "properties": {
        "Role": "Reference",
        "UUID": "UUID_7e4617a7-5812-4a68-b11a-c135a65fce4a",
        "Zone": "Business1",
        "Width m": 151.3900003378876,
        "Width diff": 0,
        "Aspect ratio": 1.388816950743517,
        "Aspect diff": 0,
        "Final allowable GFA m²": 61691.193668160486,
        "GFA diff": 0,
        "KG site area m²": 24676.477467264194,
        "Master Plan GPR": 2.5,
        "Master Plan GPR cap m²": 61691.193668160486,
        "Final GFA basis": "Master Plan GPR cap",
        "Width and aspect match": true,
        "GFA match": true,
        "Non-road context plots": 10,
        "Educational plots": 1,
        "B1-family plots": 0,
        "Residential plots": 5,
        "Non-residential plots": 5,
        "Non-residential share": 0.5,
        "Bordering road plots": 3,
        "Road type counts": "{\"Local Collector/Primary Access\":3}",
        "Context zone counts": "{\"CivicAndCommunityInstitutionZone\":1,\"Commercial\":2,\"EducationalInstitution\":1,\"PlaceOfWorship\":1,\"Residential\":5}"
      }
    }
  ]
}