{
  "type": "FeatureCollection",
  "name": "SITE1-like similar plots",
  "rule": "Business1 AND [(width AND aspect ratio) OR selected GFA] AND non-road context AND bordering roads",
  "filter_counts": [
    {
      "filter": 1,
      "name": "Business1",
      "input": 1510,
      "passed": 1510
    },
    {
      "filter": 2,
      "name": "(Width AND aspect ratio) OR final allowable GFA",
      "input": 1510,
      "passed": 68
    },
    {
      "filter": 3,
      "name": "Non-road context",
      "input": 68,
      "passed": 25
    },
    {
      "filter": 4,
      "name": "Bordering road similarity",
      "input": 25,
      "passed": 5
    }
  ],
  "features": [
    {
      "type": "Feature",
      "id": "UUID_e0fdd143-b35d-4b69-bb99-932b77fcb2d6",
      "geometry": {
        "type": "Polygon",
        "coordinates": [
          [
            [
              103.861860197796,
              1.3343406004199
            ],
            [
              103.861861811257,
              1.33431037563712
            ],
            [
              103.861861307187,
              1.33431218256315
            ],
            [
              103.86005609166,
              1.334336426364
            ],
            [
              103.860022933273,
              1.33435226214782
            ],
            [
              103.859983704503,
              1.33439331620018
            ],
            [
              103.859939480691,
              1.33443791722368
            ],
            [
              103.859927520548,
              1.33448931057699
            ],
            [
              103.859921990676,
              1.33497729574733
            ],
            [
              103.859926404713,
              1.33500732964268
            ],
            [
              103.85992732041,
              1.33501355889504
            ],
            [
              103.859949447095,
              1.33506996476918
            ],
            [
              103.859972391187,
              1.33510014587389
            ],
            [
              103.860009593684,
              1.33513912448006
            ],
            [
              103.860048911143,
              1.33515551836918
            ],
            [
              103.86007311833,
              1.33515993502031
            ],
            [
              103.86182806224,
              1.33515979218911
            ],
            [
              103.861828061337,
              1.33515943948698
            ],
            [
              103.861828073913,
              1.33515905603631
            ],
            [
              103.861828090979,
              1.335158519748
            ],
            [
              103.861828123316,
              1.33515754303405
            ],
            [
              103.861828252662,
              1.33515355388102
            ],
            [
              103.86182842243,
              1.33514836373155
            ],
            [
              103.861828691004,
              1.33514011863788
            ],
            [
              103.86182968805,
              1.33510949232467
            ],
            [
              103.861830740787,
              1.33507716309259
            ],
            [
              103.86183162735,
              1.33504993899967
            ],
            [
              103.861832846261,
              1.3350125046284
            ],
            [
              103.861834559205,
              1.3349599257645
            ],
            [
              103.861836835344,
              1.3348900328369
            ],
            [
              103.861838787241,
              1.33483197261733
            ],
            [
              103.861840048404,
              1.33479624387683
            ],
            [
              103.861841293413,
              1.33476222167219
            ],
            [
              103.86184330737,
              1.33470942847031
            ],
            [
              103.861845150679,
              1.33466330495814
            ],
            [
              103.861848156429,
              1.33459188726342
            ],
            [
              103.861851253855,
              1.33452244108205
            ],
            [
              103.861851974318,
              1.33450682179542
            ],
            [
              103.861853678465,
              1.33447067975512
            ],
            [
              103.861854680116,
              1.33444987483951
            ],
            [
              103.861855838982,
              1.3344261849995
            ],
            [
              103.861856360923,
              1.33441566994807
            ],
            [
              103.861858290583,
              1.33437742254468
            ],
            [
              103.861860197796,
              1.3343406004199
            ]
          ]
        ]
      },
      "properties": {
        "Role": "Reference",
        "UUID": "UUID_e0fdd143-b35d-4b69-bb99-932b77fcb2d6",
        "Zone": "Business1",
        "Width m": 93.92383815482026,
        "Width diff": 0,
        "Aspect ratio": 2.2985393132766423,
        "Aspect diff": 0,
        "Final allowable GFA m²": 49197.04027062477,
        "GFA diff": 0,
        "KG site area m²": 19678.816108249906,
        "Master Plan GPR": 2.5,
        "Master Plan GPR cap m²": 49197.04027062477,
        "Final GFA basis": "Master Plan GPR cap",
        "Width and aspect match": true,
        "GFA match": true,
        "Non-road context plots": 11,
        "Educational plots": 0,
        "B1-family plots": 4,
        "Residential plots": 2,
        "Non-residential plots": 9,
        "Non-residential share": 0.8181818181818182,
        "Bordering road plots": 4,
        "Road type counts": "{\"Slip Road\":1,\"Local Collector/Primary Access\":2,\"Local Access\":1}",
        "Context zone counts": "{\"Business1\":4,\"CivicAndCommunityInstitutionZone\":1,\"HealthAndMedicalCare\":1,\"PlaceOfWorship\":2,\"ReserveSite\":1,\"Residential\":2}"
      }
    },
    {
      "type": "Feature",
      "id": "UUID_94df4635-8d14-431a-b6e6-d211bdf4851f",
      "geometry": {
        "type": "Polygon",
        "coordinates": [
          [
            [
              103.852211133238,
              1.33147729595335
            ],
            [
              103.852203526946,
              1.33147554064039
            ],
            [
              103.852070073383,
              1.33147656269221
            ],
            [
              103.851954726135,
              1.33153181120053
            ],
            [
              103.851867701677,
              1.33162755693276
            ],
            [
              103.851822352455,
              1.3317501438868
            ],
            [
              103.851724621467,
              1.33242235877204
            ],
            [
              103.851724796687,
              1.33242259571423
            ],
            [
              103.851817101842,
              1.33254753116863
            ],
            [
              103.852892065244,
              1.33270665931729
            ],
            [
              103.853058884002,
              1.33156606983487
            ],
            [
              103.852211133238,
              1.33147729595335
            ]
          ]
        ]
      },
      "properties": {
        "Role": "Candidate",
        "UUID": "UUID_94df4635-8d14-431a-b6e6-d211bdf4851f",
        "Zone": "Business1",
        "Width m": 127.47964091516769,
        "Width diff": 0.3572660936729971,
        "Aspect ratio": 1.0447675044349871,
        "Aspect diff": -0.5454645920562319,
        "Final allowable GFA m²": 40921.759228678,
        "GFA diff": -0.16820688798402955,
        "KG site area m²": 16368.7036914712,
        "Master Plan GPR": 2.5,
        "Master Plan GPR cap m²": 40921.759228678,
        "Final GFA basis": "Master Plan GPR cap",
        "Width and aspect match": false,
        "GFA match": true,
        "Non-road context plots": 7,
        "Educational plots": 0,
        "B1-family plots": 5,
        "Residential plots": 2,
        "Non-residential plots": 5,
        "Non-residential share": 0.7142857142857143,
        "Bordering road plots": 3,
        "Road type counts": "{\"Local Collector/Primary Access\":1,\"Major Arterials/Minor Arterials\":1,\"Local Access\":1}",
        "Context zone counts": "{\"Business1\":5,\"Residential\":2}"
      }
    },
    {
      "type": "Feature",
      "id": "UUID_48f0a6c8-3051-44ac-aae6-b47ab34effa1",
      "geometry": {
        "type": "Polygon",
        "coordinates": [
          [
            [
              103.84305028,
              1.34847393780289
            ],
            [
              103.842667751284,
              1.34802935465617
            ],
            [
              103.842569349294,
              1.34791456315106
            ],
            [
              103.842564189123,
              1.34798678661927
            ],
            [
              103.842562772165,
              1.34800661843247
            ],
            [
              103.842494194115,
              1.3480663790952
            ],
            [
              103.84243730612,
              1.34806225540806
            ],
            [
              103.841623282955,
              1.34877185884688
            ],
            [
              103.841615070481,
              1.34888665889648
            ],
            [
              103.842028267216,
              1.34936674834874
            ],
            [
              103.842194321094,
              1.34922160629829
            ],
            [
              103.84236037585,
              1.34907649136733
            ],
            [
              103.842434380333,
              1.34901160294193
            ],
            [
              103.842608278588,
              1.34885966905652
            ],
            [
              103.842819386171,
              1.34867531354798
            ],
            [
              103.84305028,
              1.34847393780289
            ]
          ]
        ]
      },
      "properties": {
        "Role": "Candidate",
        "UUID": "UUID_48f0a6c8-3051-44ac-aae6-b47ab34effa1",
        "Zone": "Business1",
        "Width m": 81.79475932676723,
        "Width diff": -0.12913738478255055,
        "Aspect ratio": 1.8428034628365686,
        "Aspect diff": -0.1982719407093401,
        "Final allowable GFA m²": 29765.364710375743,
        "GFA diff": -0.3949765159318243,
        "KG site area m²": 11906.145884150297,
        "Master Plan GPR": 2.5,
        "Master Plan GPR cap m²": 29765.364710375743,
        "Final GFA basis": "Master Plan GPR cap",
        "Width and aspect match": true,
        "GFA match": false,
        "Non-road context plots": 67,
        "Educational plots": 0,
        "B1-family plots": 16,
        "Residential plots": 49,
        "Non-residential plots": 18,
        "Non-residential share": 0.26865671641791045,
        "Bordering road plots": 3,
        "Road type counts": "{\"Local Access\":2,\"Local Collector/Primary Access\":1}",
        "Context zone counts": "{\"Business1\":16,\"Park\":1,\"Residential\":46,\"ResidentialWithCommercialAtFirstStorey\":3,\"Utility\":1}"
      }
    },
    {
      "type": "Feature",
      "id": "UUID_2225eec2-632a-4a08-8e50-942fb6369610",
      "geometry": {
        "type": "Polygon",
        "coordinates": [
          [
            [
              103.937965239132,
              1.37239037065406
            ],
            [
              103.937974448302,
              1.37238411205842
            ],
            [
              103.937982434354,
              1.37237892695092
            ],
            [
              103.937990349221,
              1.37237363243508
            ],
            [
              103.93799819142,
              1.37236822949878
            ],
            [
              103.937805188468,
              1.37224298917379
            ],
            [
              103.937567120065,
              1.37208770516353
            ],
            [
              103.93732464241,
              1.371932419511
            ],
            [
              103.937099801833,
              1.37181706972201
            ],
            [
              103.936835283329,
              1.37170615844104
            ],
            [
              103.936561949605,
              1.37163073832495
            ],
            [
              103.936434099988,
              1.37160412395181
            ],
            [
              103.936243601239,
              1.37157832259226
            ],
            [
              103.936225249555,
              1.37159471948396
            ],
            [
              103.936148879446,
              1.37166295063013
            ],
            [
              103.936120771489,
              1.37168866287982
            ],
            [
              103.936093269195,
              1.37171502986173
            ],
            [
              103.93604488409,
              1.37176122499569
            ],
            [
              103.936043733067,
              1.37176226506262
            ],
            [
              103.936047876732,
              1.37177073514575
            ],
            [
              103.93637239479,
              1.37243425299683
            ],
            [
              103.936596029785,
              1.37232541046455
            ],
            [
              103.936677007146,
              1.37249394218591
            ],
            [
              103.93675798362,
              1.37266247390345
            ],
            [
              103.936844105778,
              1.37284171395264
            ],
            [
              103.936908147208,
              1.37297499976566
            ],
            [
              103.936909037668,
              1.37297447610079
            ],
            [
              103.937291419841,
              1.37274979308007
            ],
            [
              103.937965239132,
              1.37239037065406
            ]
          ]
        ]
      },
      "properties": {
        "Role": "Candidate",
        "UUID": "UUID_2225eec2-632a-4a08-8e50-942fb6369610",
        "Zone": "Business1",
        "Width m": 122.20949108785135,
        "Width diff": 0.30115520712011534,
        "Aspect ratio": 1.7922800212587346,
        "Aspect diff": -0.22025261395082193,
        "Final allowable GFA m²": 40949.63586013885,
        "GFA diff": -0.16764025569664995,
        "KG site area m²": 16379.854344055539,
        "Master Plan GPR": 2.5,
        "Master Plan GPR cap m²": 40949.63586013885,
        "Final GFA basis": "Master Plan GPR cap",
        "Width and aspect match": false,
        "GFA match": true,
        "Non-road context plots": 25,
        "Educational plots": 0,
        "B1-family plots": 5,
        "Residential plots": 4,
        "Non-residential plots": 21,
        "Non-residential share": 0.84,
        "Bordering road plots": 4,
        "Road type counts": "{\"Local Access\":1,\"Local Collector/Primary Access\":1,\"no category\":1,\"Expressway\":1}",
        "Context zone counts": "{\"Business1\":2,\"Business1White\":3,\"Business2\":5,\"CivicAndCommunityInstitutionZone\":1,\"OpenSpace\":1,\"Park\":2,\"PlaceOfWorship\":1,\"ReserveSite\":1,\"Residential\":4,\"Utility\":1,\"Waterbody\":4}"
      }
    },
    {
      "type": "Feature",
      "id": "UUID_a83a9b0f-fa4f-40e1-8cca-cdd138497d93",
      "geometry": {
        "type": "Polygon",
        "coordinates": [
          [
            [
              103.759779639034,
              1.33989573590275
            ],
            [
              103.75977984482,
              1.33989520504743
            ],
            [
              103.759811718997,
              1.3398179272223
            ],
            [
              103.759817514218,
              1.33980392965498
            ],
            [
              103.75983403095,
              1.33976281235074
            ],
            [
              103.75984647508,
              1.33973289546866
            ],
            [
              103.759833421251,
              1.33971847409006
            ],
            [
              103.759813836199,
              1.33969070953121
            ],
            [
              103.759803318235,
              1.33967186498586
            ],
            [
              103.759803999949,
              1.33965151591739
            ],
            [
              103.759817095657,
              1.33961743988614
            ],
            [
              103.759857290298,
              1.3395161053306
            ],
            [
              103.759908173508,
              1.33940739691423
            ],
            [
              103.759949752713,
              1.33930966086177
            ],
            [
              103.759973792717,
              1.33925012641458
            ],
            [
              103.760010529328,
              1.33916104316739
            ],
            [
              103.760041540026,
              1.33908198009778
            ],
            [
              103.760076930591,
              1.33899291399161
            ],
            [
              103.760095230342,
              1.33894204498382
            ],
            [
              103.76011343601,
              1.33888213595269
            ],
            [
              103.760125920248,
              1.33883270109072
            ],
            [
              103.760137965961,
              1.33878417510104
            ],
            [
              103.760155182569,
              1.33871569176671
            ],
            [
              103.760167619315,
              1.3386617359884
            ],
            [
              103.76017694965,
              1.33861098608631
            ],
            [
              103.760185220274,
              1.33857069511946
            ],
            [
              103.75911821035,
              1.33815324200806
            ],
            [
              103.75860012416,
              1.33949350229502
            ],
            [
              103.758644581526,
              1.33960266940614
            ],
            [
              103.758921405681,
              1.33972648527804
            ],
            [
              103.759078750277,
              1.33979240915525
            ],
            [
              103.759170446995,
              1.3398316703805
            ],
            [
              103.759498847523,
              1.3399871124563
            ],
            [
              103.7595370449,
              1.33999878081135
            ],
            [
              103.759588479099,
              1.34000532996361
            ],
            [
              103.759639696134,
              1.34000225667784
            ],
            [
              103.759688829763,
              1.33998739042454
            ],
            [
              103.759720918098,
              1.33996038166699
            ],
            [
              103.759756198287,
              1.33992748650174
            ],
            [
              103.759768650081,
              1.33991182239331
            ],
            [
              103.759779639034,
              1.33989573590275
            ]
          ]
        ]
      },
      "properties": {
        "Role": "Candidate",
        "UUID": "UUID_a83a9b0f-fa4f-40e1-8cca-cdd138497d93",
        "Zone": "Business1",
        "Width m": 138.86487522204334,
        "Width diff": 0.4784838221064187,
        "Aspect ratio": 1.2505591451072418,
        "Aspect diff": -0.45593310591476066,
        "Final allowable GFA m²": 57053.935002537175,
        "GFA diff": 0.15970258960077535,
        "KG site area m²": 22821.57400101487,
        "Master Plan GPR": 2.5,
        "Master Plan GPR cap m²": 57053.935002537175,
        "Final GFA basis": "Master Plan GPR cap",
        "Width and aspect match": false,
        "GFA match": true,
        "Non-road context plots": 61,
        "Educational plots": 1,
        "B1-family plots": 22,
        "Residential plots": 24,
        "Non-residential plots": 37,
        "Non-residential share": 0.6065573770491803,
        "Bordering road plots": 3,
        "Road type counts": "{\"Local Collector/Primary Access\":2,\"Major Arterials/Minor Arterials\":1}",
        "Context zone counts": "{\"Business1\":22,\"Cemetery\":1,\"CivicAndCommunityInstitutionZone\":2,\"EducationalInstitution\":1,\"OpenSpace\":1,\"Park\":1,\"PlaceOfWorship\":2,\"ReserveSite\":1,\"Residential\":24,\"TransportFacilities\":3,\"Utility\":1,\"Waterbody\":2}"
      }
    }
  ]
}